start=new Date('2023-05-20T00:00:00.000Z').valueOf();
sats=[{"ECCENTRICITY":"0.00010030","REV_AT_EPOCH":"12603","APOAPSIS":"547.875","MEAN_ANOMALY":"279.0628","REF_FRAME":"TEME","RCS_SIZE":"LARGE","TLE_LINE2":"2 47575  53.0541 322.5727 0001003  81.0475 279.0628 15.06410673126034","FILE":"3912278","GP_ID":"232158704","EPHEMERIS_TYPE":"0","TLE_LINE1":"1 47575U 21009AD  23139.78946246  .00009145  00000-0  63181-3 0  9995","ARG_OF_PERICENTER":"81.0475","CENTER_NAME":"EARTH","SEMIMAJOR_AXIS":"6925.316","LAUNCH_DATE":"2021-02-04","EPOCH":"2023-05-19T18:56:49.556544","PERIOD":"95.591","RA_OF_ASC_NODE":"322.5727","MEAN_MOTION_DDOT":"0.0000000000000","COUNTRY_CODE":"US","MEAN_MOTION":"15.06410673","NORAD_CAT_ID":"47575","MEAN_ELEMENT_THEORY":"SGP4","DECAY_DATE":null,"OBJECT_TYPE":"PAYLOAD","BSTAR":"0.00063181000000","ELEMENT_SET_NO":"999","INCLINATION":"53.0541","SITE":"AFETR","CLASSIFICATION_TYPE":"U","OBJECT_ID":"2021-009AD","OBJECT_NAME":"STARLINK-1977","MEAN_MOTION_DOT":"0.00009145","TIME_SYSTEM":"UTC","PERIAPSIS":"546.486"},{"MEAN_MOTION":"15.06406445","MEAN_MOTION_DDOT":"0.0000000000000","COUNTRY_CODE":"US","PERIOD":"95.592","RA_OF_ASC_NODE":"283.0169","LAUNCH_DATE":"2021-02-04","SEMIMAJOR_AXIS":"6925.329","EPOCH":"2023-05-19T16:33:31.155552","ARG_OF_PERICENTER":"79.9795","CENTER_NAME":"EARTH","GP_ID":"232159454","EPHEMERIS_TYPE":"0","TLE_LINE1":"1 47576U 21009AE  23139.68994393  .00008377  00000-0  58046-3 0  9991","FILE":"3912278","TLE_LINE2":"2 47576  53.0538 283.0169 0001071  79.9795 280.1315 15.06406445126586","RCS_SIZE":"LARGE","REF_FRAME":"TEME","REV_AT_EPOCH":"12658","MEAN_ANOMALY":"280.1315","APOAPSIS":"547.936","ECCENTRICITY":"0.00010710","TIME_SYSTEM":"UTC","PERIAPSIS":"546.452","MEAN_MOTION_DOT":"0.00008377","OBJECT_ID":"2021-009AE","OBJECT_NAME":"STARLINK-1978","CLASSIFICATION_TYPE":"U","SITE":"AFETR","INCLINATION":"53.0538","ELEMENT_SET_NO":"999","BSTAR":"0.00058046000000","DECAY_DATE":null,"MEAN_ELEMENT_THEORY":"SGP4","OBJECT_TYPE":"PAYLOAD","NORAD_CAT_ID":"47576"},{"SITE":"AFETR","CLASSIFICATION_TYPE":"U","OBJECT_NAME":"STARLINK-1979","OBJECT_ID":"2021-009AF","MEAN_MOTION_DOT":"0.00007183","TIME_SYSTEM":"UTC","PERIAPSIS":"546.409","NORAD_CAT_ID":"47577","OBJECT_TYPE":"PAYLOAD","DECAY_DATE":null,"MEAN_ELEMENT_THEORY":"SGP4","BSTAR":"0.00050055000000","ELEMENT_SET_NO":"999","INCLINATION":"53.0541","EPHEMERIS_TYPE":"0","GP_ID":"232159706","TLE_LINE1":"1 47577U 21009AF  23139.73094602  .00007183  00000-0  50055-3 0  9998","ARG_OF_PERICENTER":"67.3388","CENTER_NAME":"EARTH","SEMIMAJOR_AXIS":"6925.327","LAUNCH_DATE":"2021-02-04","EPOCH":"2023-05-19T17:32:33.736128","PERIOD":"95.592","RA_OF_ASC_NODE":"297.8333","MEAN_MOTION_DDOT":"0.0000000000000","COUNTRY_CODE":"US","MEAN_MOTION":"15.06406880","ECCENTRICITY":"0.00011320","REV_AT_EPOCH":"12638","APOAPSIS":"547.976","MEAN_ANOMALY":"292.7720","REF_FRAME":"TEME","RCS_SIZE":"LARGE","TLE_LINE2":"2 47577  53.0541 297.8333 0001132  67.3388 292.7720 15.06406880126384","FILE":"3912278"},{"ELEMENT_SET_NO":"999","INCLINATION":"53.0539","NORAD_CAT_ID":"47578","DECAY_DATE":null,"OBJECT_TYPE":"PAYLOAD","MEAN_ELEMENT_THEORY":"SGP4","BSTAR":"0.00015352000000","OBJECT_NAME":"STARLINK-1980","OBJECT_ID":"2021-009AG","MEAN_MOTION_DOT":"0.00002006","TIME_SYSTEM":"UTC","PERIAPSIS":"546.524","SITE":"AFETR","CLASSIFICATION_TYPE":"U","TLE_LINE2":"2 47578  53.0539 302.8629 0000972  84.7980 275.3119 15.06405377126300","FILE":"3912278","ECCENTRICITY":"0.00009720","REV_AT_EPOCH":"12630","MEAN_ANOMALY":"275.3119","APOAPSIS":"547.870","REF_FRAME":"TEME","RCS_SIZE":"LARGE","PERIOD":"95.592","RA_OF_ASC_NODE":"302.8629","MEAN_MOTION_DDOT":"0.0000000000000","COUNTRY_CODE":"US","MEAN_MOTION":"15.06405377","EPHEMERIS_TYPE":"0","GP_ID":"232158676","TLE_LINE1":"1 47578U 21009AG  23139.72495895  .00002006  00000-0  15352-3 0  9997","CENTER_NAME":"EARTH","ARG_OF_PERICENTER":"84.7980","EPOCH":"2023-05-19T17:23:56.453280","LAUNCH_DATE":"2021-02-04","SEMIMAJOR_AXIS":"6925.332"},{"SITE":"AFETR","CLASSIFICATION_TYPE":"U","OBJECT_NAME":"STARLINK-1981","OBJECT_ID":"2021-009AH","PERIAPSIS":"546.521","TIME_SYSTEM":"UTC","MEAN_MOTION_DOT":"0.00004048","NORAD_CAT_ID":"47579","BSTAR":"0.00029052000000","MEAN_ELEMENT_THEORY":"SGP4","DECAY_DATE":null,"OBJECT_TYPE":"PAYLOAD","ELEMENT_SET_NO":"999","INCLINATION":"53.0542","CENTER_NAME":"EARTH","ARG_OF_PERICENTER":"75.8308","TLE_LINE1":"1 47579U 21009AH  23139.70745285  .00004048  00000-0  29052-3 0  9997","EPHEMERIS_TYPE":"0","GP_ID":"232159204","LAUNCH_DATE":"2021-02-04","SEMIMAJOR_AXIS":"6925.354","EPOCH":"2023-05-19T16:58:43.926240","RA_OF_ASC_NODE":"292.9402","PERIOD":"95.592","MEAN_MOTION":"15.06398227","COUNTRY_CODE":"US","MEAN_MOTION_DDOT":"0.0000000000000","MEAN_ANOMALY":"284.2793","APOAPSIS":"547.917","REV_AT_EPOCH":"12644","ECCENTRICITY":"0.00010080","RCS_SIZE":"LARGE","REF_FRAME":"TEME","TLE_LINE2":"2 47579  53.0542 292.9402 0001008  75.8308 284.2793 15.06398227126446","FILE":"3912278"},{"APOAPSIS":"548.076","MEAN_ANOMALY":"274.5755","REV_AT_EPOCH":"12630","ECCENTRICITY":"0.00012550","RCS_SIZE":"LARGE","REF_FRAME":"TEME","TLE_LINE2":"2 47580  53.0539 302.8509 0001255  85.5377 274.5755 15.06402043126308","FILE":"3912278","CENTER_NAME":"EARTH","ARG_OF_PERICENTER":"85.5377","TLE_LINE1":"1 47580U 21009AJ  23139.72864485  .00002970  00000-0  21817-3 0  9998","EPHEMERIS_TYPE":"0","GP_ID":"232158955","LAUNCH_DATE":"2021-02-04","EPOCH":"2023-05-19T17:29:14.915040","SEMIMAJOR_AXIS":"6925.342","RA_OF_ASC_NODE":"302.8509","PERIOD":"95.592","MEAN_MOTION":"15.06402043","COUNTRY_CODE":"US","MEAN_MOTION_DDOT":"0.0000000000000","NORAD_CAT_ID":"47580","BSTAR":"0.00021817000000","MEAN_ELEMENT_THEORY":"SGP4","DECAY_DATE":null,"OBJECT_TYPE":"PAYLOAD","ELEMENT_SET_NO":"999","INCLINATION":"53.0539","SITE":"AFETR","CLASSIFICATION_TYPE":"U","OBJECT_ID":"2021-009AJ","OBJECT_NAME":"STARLINK-1982","PERIAPSIS":"546.338","TIME_SYSTEM":"UTC","MEAN_MOTION_DOT":"0.00002970"},{"MEAN_ANOMALY":"282.3036","APOAPSIS":"547.961","REV_AT_EPOCH":"12660","ECCENTRICITY":"0.00010590","RCS_SIZE":"LARGE","REF_FRAME":"TEME","TLE_LINE2":"2 47581  53.0538 282.3399 0001059  77.8072 282.3036 15.06395354126603","FILE":"3912278","ARG_OF_PERICENTER":"77.8072","CENTER_NAME":"EARTH","TLE_LINE1":"1 47581U 21009AK  23139.84106290  .00004246  00000-0  30382-3 0  9990","GP_ID":"232160206","EPHEMERIS_TYPE":"0","LAUNCH_DATE":"2021-02-04","EPOCH":"2023-05-19T20:11:07.834560","SEMIMAJOR_AXIS":"6925.363","RA_OF_ASC_NODE":"282.3399","PERIOD":"95.592","MEAN_MOTION":"15.06395354","COUNTRY_CODE":"US","MEAN_MOTION_DDOT":"0.0000000000000","NORAD_CAT_ID":"47581","BSTAR":"0.00030382000000","MEAN_ELEMENT_THEORY":"SGP4","DECAY_DATE":null,"OBJECT_TYPE":"PAYLOAD","ELEMENT_SET_NO":"999","INCLINATION":"53.0538","SITE":"AFETR","CLASSIFICATION_TYPE":"U","OBJECT_ID":"2021-009AK","OBJECT_NAME":"STARLINK-1984","PERIAPSIS":"546.494","TIME_SYSTEM":"UTC","MEAN_MOTION_DOT":"0.00004246"},{"INCLINATION":"53.0538","ELEMENT_SET_NO":"999","BSTAR":"0.00078225000000","OBJECT_TYPE":"PAYLOAD","DECAY_DATE":null,"MEAN_ELEMENT_THEORY":"SGP4","NORAD_CAT_ID":"47582","PERIAPSIS":"546.158","TIME_SYSTEM":"UTC","MEAN_MOTION_DOT":"0.00011391","OBJECT_NAME":"STARLINK-1986","OBJECT_ID":"2021-009AL","CLASSIFICATION_TYPE":"U","SITE":"AFETR","FILE":"3912278","TLE_LINE2":"2 47582  53.0538 303.8898 0001495  85.2176 274.8983 15.06406528126275","RCS_SIZE":"LARGE","REF_FRAME":"TEME","MEAN_ANOMALY":"274.8983","APOAPSIS":"548.229","REV_AT_EPOCH":"12627","ECCENTRICITY":"0.00014950","MEAN_MOTION":"15.06406528","COUNTRY_CODE":"US","MEAN_MOTION_DDOT":"0.0000000000000","RA_OF_ASC_NODE":"303.8898","PERIOD":"95.592","LAUNCH_DATE":"2021-02-04","SEMIMAJOR_AXIS":"6925.329","EPOCH":"2023-05-19T11:54:53.111520","ARG_OF_PERICENTER":"85.2176","CENTER_NAME":"EARTH","TLE_LINE1":"1 47582U 21009AL  23139.49644805  .00011391  00000-0  78225-3 0  9998","GP_ID":"232159176","EPHEMERIS_TYPE":"0"},{"COUNTRY_CODE":"US","MEAN_MOTION_DDOT":"0.0000000000000","MEAN_MOTION":"15.06429584","RA_OF_ASC_NODE":"302.7957","PERIOD":"95.590","LAUNCH_DATE":"2021-02-04","SEMIMAJOR_AXIS":"6925.258","EPOCH":"2023-05-19T17:45:09.145152","TLE_LINE1":"1 47583U 21009AM  23139.73968918  .00018978  00000-0  12885-2 0  9997","GP_ID":"232158705","EPHEMERIS_TYPE":"0","ARG_OF_PERICENTER":"80.2444","CENTER_NAME":"EARTH","FILE":"3912278","TLE_LINE2":"2 47583  53.0538 302.7957 0000988  80.2444 279.8657 15.06429584126314","REF_FRAME":"TEME","RCS_SIZE":"LARGE","ECCENTRICITY":"0.00009880","APOAPSIS":"547.807","MEAN_ANOMALY":"279.8657","REV_AT_EPOCH":"12631","MEAN_MOTION_DOT":"0.00018978","PERIAPSIS":"546.439","TIME_SYSTEM":"UTC","OBJECT_NAME":"STARLINK-1987","OBJECT_ID":"2021-009AM","CLASSIFICATION_TYPE":"U","SITE":"AFETR","INCLINATION":"53.0538","ELEMENT_SET_NO":"999","OBJECT_TYPE":"PAYLOAD","DECAY_DATE":null,"MEAN_ELEMENT_THEORY":"SGP4","BSTAR":"0.00128850000000","NORAD_CAT_ID":"47583"},{"FILE":"3912278","TLE_LINE2":"2 47585  53.0536 303.5745 0001130  87.7120 272.3998 15.06398346126284","REF_FRAME":"TEME","RCS_SIZE":"LARGE","ECCENTRICITY":"0.00011300","MEAN_ANOMALY":"272.3998","APOAPSIS":"548.001","REV_AT_EPOCH":"12628","COUNTRY_CODE":"US","MEAN_MOTION_DDOT":"0.0000000000000","MEAN_MOTION":"15.06398346","RA_OF_ASC_NODE":"303.5745","PERIOD":"95.592","LAUNCH_DATE":"2021-02-04","EPOCH":"2023-05-19T13:35:42.563040","SEMIMAJOR_AXIS":"6925.354","TLE_LINE1":"1 47585U 21009AP  23139.56646485  .00003168  00000-0  23148-3 0  9992","GP_ID":"232159455","EPHEMERIS_TYPE":"0","ARG_OF_PERICENTER":"87.7120","CENTER_NAME":"EARTH","INCLINATION":"53.0536","ELEMENT_SET_NO":"999","MEAN_ELEMENT_THEORY":"SGP4","DECAY_DATE":null,"OBJECT_TYPE":"PAYLOAD","BSTAR":"0.00023148000000","NORAD_CAT_ID":"47585","MEAN_MOTION_DOT":"0.00003168","PERIAPSIS":"546.436","TIME_SYSTEM":"UTC","OBJECT_NAME":"STARLINK-1989","OBJECT_ID":"2021-009AP","CLASSIFICATION_TYPE":"U","SITE":"AFETR"}];
